     2              NAVIGATION DATA                         RINEX VERSION / TYPE
CCRINEXN V1.6.0 UX  CDDIS               10-DEC-16 17:31     PGM / RUN BY / DATE 
IGS BROADCAST EPHEMERIS FILE                                COMMENT             
    0.9313D-08 -0.1490D-07 -0.5960D-07  0.1192D-06          ION ALPHA           
    0.9626D+05 -0.1475D+06 -0.1311D+06  0.9175D+06          ION BETA            
   -0.186264514923D-08-0.710542735760D-14   589824     1926 DELTA-UTC: A0,A1,T,W
    17                                                      LEAP SECONDS        
                                                            END OF HEADER       
13 16 12  9 20  0  0.0-0.591748394072D-04-0.193267624127D-11 0.000000000000D+00
    0.110000000000D+03 0.987812500000D+02 0.434839541384D-08 0.984825397154D+00
    0.510364770889D-05 0.405385741033D-02 0.109001994133D-04 0.515369267464D+04
    0.504000000000D+06-0.558793544769D-08 0.281701173948D+01-0.651925802231D-07
    0.970649368402D+00 0.173468750000D+03 0.188054243088D+01-0.797640367780D-08
    0.230366738556D-09 0.100000000000D+01 0.192600000000D+04 0.000000000000D+00
    0.290000000000D+01 0.000000000000D+00-0.111758708954D-07 0.110000000000D+03
    0.496800000000D+06 0.400000000000D+01 0.000000000000D+00 0.000000000000D+00
14 16 12  9 20  0  0.0-0.487826764584D-04-0.170530256582D-11 0.000000000000D+00
    0.240000000000D+02 0.744062500000D+02 0.436768193148D-08 0.232093067873D+01
    0.382773578167D-05 0.865174341016D-02 0.108927488327D-04 0.515361106873D+04
    0.504000000000D+06 0.465661287308D-07 0.277870845385D+01-0.186264514923D-06
    0.963130520995D+00 0.168375000000D+03-0.194946905821D+01-0.778639576321D-08
    0.123933733766D-09 0.100000000000D+01 0.192600000000D+04 0.000000000000D+00
    0.200000000000D+01 0.000000000000D+00-0.931322574616D-08 0.240000000000D+02
    0.498540000000D+06 0.400000000000D+01 0.000000000000D+00 0.000000000000D+00
15 16 12  9 20  0  0.0-0.336947385222D-03-0.113686837722D-11 0.000000000000D+00
    0.520000000000D+02 0.756250000000D+02 0.518843040467D-08 0.194325736321D+01
    0.399164855480D-05 0.889463839121D-02 0.122413039208D-04 0.515372119331D+04
    0.504000000000D+06-0.195577740669D-06 0.263600854575D+01 0.763684511185D-07
    0.929976513895D+00 0.127906250000D+03 0.545178560578D+00-0.833106130786D-08
    0.710743891050D-10 0.100000000000D+01 0.192600000000D+04 0.000000000000D+00
    0.200000000000D+01 0.000000000000D+00-0.107102096081D-07 0.520000000000D+02
    0.498330000000D+06 0.400000000000D+01 0.000000000000D+00 0.000000000000D+00
16 16 12  9 20  0  0.0 0.187731347978D-04 0.147792889038D-11 0.000000000000D+00
    0.370000000000D+02-0.774062500000D+02 0.377980030100D-08-0.257859210375D+01
   -0.402517616749D-05 0.885059195571D-02 0.790320336819D-05 0.515361370468D+04
    0.504000000000D+06-0.558793544769D-07-0.141202283599D+01-0.102445483208D-06
    0.990202725598D+00 0.244531250000D+03 0.380151500207D+00-0.776068040635D-08
   -0.278225874939D-09 0.100000000000D+01 0.192600000000D+04 0.000000000000D+00
    0.200000000000D+01 0.000000000000D+00-0.102445483208D-07 0.370000000000D+02
    0.496800000000D+06 0.400000000000D+01 0.000000000000D+00 0.000000000000D+00
17 16 12  9 20  0  0.0-0.197358429432D-03 0.909494701773D-12 0.000000000000D+00
    0.900000000000D+01 0.690625000000D+01 0.375337062867D-08 0.264499493552D+01
    0.318512320519D-06 0.114973140880D-01 0.108387321234D-04 0.515355258751D+04
    0.504000000000D+06 0.111758708954D-06-0.392653501560D+00-0.335276126862D-07
    0.978678731795D+00 0.176625000000D+03-0.189692479903D+01-0.753281377193D-08
    0.431803700643D-09 0.100000000000D+01 0.192600000000D+04 0.000000000000D+00
    0.200000000000D+01 0.000000000000D+00-0.107102096081D-07 0.900000000000D+01
    0.496800000000D+06 0.400000000000D+01 0.000000000000D+00 0.000000000000D+00
18 16 12  9 20  0  0.0 0.582726672292D-03 0.295585778076D-11 0.000000000000D+00
    0.660000000000D+02-0.619687500000D+02 0.540701093799D-08-0.202256465095D+01
   -0.309012830257D-05 0.173263269244D-01 0.823847949505D-05 0.515373039627D+04
    0.504000000000D+06 0.307336449623D-06 0.161574123125D+01-0.167638063431D-07
    0.924809424333D+00 0.194531250000D+03-0.184751315803D+01-0.824034324337D-08
   -0.291440711104D-09 0.100000000000D+01 0.192600000000D+04 0.000000000000D+00
    0.200000000000D+01 0.000000000000D+00-0.111758708954D-07 0.660000000000D+02
    0.496800000000D+06 0.400000000000D+01 0.000000000000D+00 0.000000000000D+00
19 16 12  9 20  0  0.0-0.518406741321D-03 0.795807864051D-12 0.000000000000D+00
    0.520000000000D+02 0.160312500000D+02 0.400695261995D-08-0.441723362477D+00
    0.100396573544D-05 0.102663872531D-01 0.105332583189D-04 0.515364345741D+04
    0.504000000000D+06 0.502914190292D-07-0.344420069907D+00 0.178813934326D-06
    0.975874080844D+00 0.187000000000D+03 0.894934704640D+00-0.800604776974D-08
    0.506449667090D-09 0.100000000000D+01 0.192600000000D+04 0.000000000000D+00
    0.200000000000D+01 0.000000000000D+00-0.149011611938D-07 0.520000000000D+02
    0.496800000000D+06 0.400000000000D+01 0.000000000000D+00 0.000000000000D+00
20 16 12  9 20  0  0.0 0.449978746474D-03 0.181898940355D-11 0.000000000000D+00
    0.190000000000D+02-0.665000000000D+02 0.558666127830D-08 0.183777072488D+01
   -0.349991023541D-05 0.476892490406D-02 0.867247581482D-05 0.515360766029D+04
    0.504000000000D+06 0.707805156708D-07 0.156416559355D+01-0.126659870148D-06
    0.926122507417D+00 0.193500000000D+03 0.151131385386D+01-0.852285501112D-08
   -0.403945397376D-09 0.100000000000D+01 0.192600000000D+04 0.000000000000D+00
    0.200000000000D+01 0.000000000000D+00-0.838190317154D-08 0.190000000000D+02
    0.498420000000D+06 0.400000000000D+01 0.000000000000D+00 0.000000000000D+00
21 16 12  9 20  0  0.0-0.529255717993D-03 0.113686837722D-11 0.000000000000D+00
    0.310000000000D+02 0.158750000000D+02 0.548844290139D-08-0.109507954068D+01
    0.133365392685D-05 0.235134698451D-01 0.542961061001D-05 0.515376953507D+04
    0.504000000000D+06-0.188127160072D-06 0.574337116040D+00 0.560656189918D-06
    0.938162027700D+00 0.266312500000D+03-0.173521146901D+01-0.885965475447D-08
    0.346800159904D-09 0.100000000000D+01 0.192600000000D+04 0.000000000000D+00
    0.280000000000D+01 0.000000000000D+00-0.977888703346D-08 0.310000000000D+02
    0.496800000000D+06 0.400000000000D+01 0.000000000000D+00 0.000000000000D+00
22 16 12  9 20  0  0.0 0.166734214872D-03-0.110276232590D-10 0.000000000000D+00
    0.880000000000D+02-0.524375000000D+02 0.555237413581D-08 0.220228584860D+01
   -0.280700623989D-05 0.729397067334D-02 0.840425491333D-05 0.515365124893D+04
    0.504000000000D+06 0.577419996262D-07 0.161596459982D+01-0.115483999252D-06
    0.922783723132D+00 0.199656250000D+03-0.183979780561D+01-0.843463705078D-08
   -0.304298389535D-09 0.100000000000D+01 0.192600000000D+04 0.000000000000D+00
    0.200000000000D+01 0.000000000000D+00-0.176951289177D-07 0.880000000000D+02
    0.503910000000D+06 0.400000000000D+01 0.000000000000D+00 0.000000000000D+00
23 16 12  9 20  0  0.0-0.199245754629D-03-0.113686837722D-11 0.000000000000D+00
    0.240000000000D+02 0.731562500000D+02 0.489948970284D-08 0.149700162744D+01
    0.396557152271D-05 0.111493478762D-01 0.109951943159D-04 0.515357975006D+04
    0.504000000000D+06-0.182539224625D-06 0.269678941992D+01 0.167638063431D-06
    0.945250488997D+00 0.163343750000D+03-0.252125086013D+01-0.830284552222D-08
   -0.571452390616D-11 0.100000000000D+01 0.192600000000D+04 0.000000000000D+00
    0.200000000000D+01 0.000000000000D+00-0.200234353542D-07 0.240000000000D+02
    0.496800000000D+06 0.000000000000D+00 0.000000000000D+00 0.000000000000D+00
24 16 12  9 20  0  0.0-0.272840261459D-04-0.568434188608D-12 0.000000000000D+00
    0.860000000000D+02 0.623437500000D+02 0.527807699595D-08 0.878359705287D+00
    0.335276126862D-05 0.514070689678D-02 0.311806797981D-05 0.515371157837D+04
    0.504000000000D+06-0.130385160446D-07-0.256222220259D+01 0.521540641785D-07
    0.947490150745D+00 0.308750000000D+03 0.409818013011D+00-0.876179353530D-08
   -0.239295681911D-10 0.100000000000D+01 0.192600000000D+04 0.000000000000D+00
    0.200000000000D+01 0.000000000000D+00 0.232830643654D-08 0.860000000000D+02
    0.503940000000D+06 0.400000000000D+01 0.000000000000D+00 0.000000000000D+00
25 16 12  9 20  0  0.0-0.296778045595D-03-0.682121026330D-11 0.000000000000D+00
    0.100000000000D+02-0.886250000000D+02 0.412695761864D-08-0.117269298140D+01
   -0.463053584099D-05 0.577825168148D-02 0.733323395252D-05 0.515366475487D+04
    0.504000000000D+06 0.212341547012D-06-0.148412615334D+01 0.167638063431D-07
    0.977767914610D+00 0.248125000000D+03 0.752772227299D+00-0.805390690612D-08
   -0.479662837025D-09 0.100000000000D+01 0.192600000000D+04 0.000000000000D+00
    0.200000000000D+01 0.000000000000D+00 0.558793544769D-08 0.100000000000D+02
    0.496818000000D+06 0.400000000000D+01 0.000000000000D+00 0.000000000000D+00
26 16 12  9 20  0  0.0-0.509365461767D-03-0.341060513165D-11 0.000000000000D+00
    0.880000000000D+02-0.805937500000D+02 0.453304593862D-08-0.151130694889D+01
   -0.415183603764D-05 0.137250684202D-02 0.660866498947D-05 0.515362134171D+04
    0.504000000000D+06-0.856816768646D-07-0.149657271010D+01 0.931322574616D-08
    0.959640915707D+00 0.254281250000D+03-0.202685153782D+00-0.819855561218D-08
   -0.329656579812D-09 0.100000000000D+01 0.192600000000D+04 0.000000000000D+00
    0.200000000000D+01 0.000000000000D+00 0.745058059692D-08 0.880000000000D+02
    0.496800000000D+06 0.000000000000D+00 0.000000000000D+00 0.000000000000D+00
